[{"OBJECT_NAME":"KAZSTSAT","OBJECT_ID":"2018-099AB","EPOCH":"2026-03-09T14:51:18.118944","MEAN_MOTION":14.99620503,"ECCENTRICITY":0.0006528,"INCLINATION":97.4396,"RA_OF_ASC_NODE":105.0128,"ARG_OF_PERICENTER":11.1145,"MEAN_ANOMALY":349.0222,"EPHEMERIS_TYPE":0,"CLASSIFICATION_TYPE":"U","NORAD_CAT_ID":43783,"ELEMENT_SET_NO":999,"REV_AT_EPOCH":39638,"BSTAR":0.00011446,"MEAN_MOTION_DOT":1.354e-5,"MEAN_MOTION_DDOT":0},{"OBJECT_NAME":"STARLINK-34014","OBJECT_ID":"2025-098S","EPOCH":"2026-03-09T23:02:15.944064","MEAN_MOTION":14.98326269,"ECCENTRICITY":0.00019954,"INCLINATION":70.0002,"RA_OF_ASC_NODE":273.7444,"ARG_OF_PERICENTER":268.5137,"MEAN_ANOMALY":91.5793,"EPHEMERIS_TYPE":0,"CLASSIFICATION_TYPE":"U","NORAD_CAT_ID":63942,"ELEMENT_SET_NO":999,"REV_AT_EPOCH":4658,"BSTAR":0.00088222016,"MEAN_MOTION_DOT":0.00010448,"MEAN_MOTION_DDOT":0}]
